{
  "type": "FeatureCollection",
  "features": [
    {
      "type": "Feature",
      "properties": {
        "norad_id": 28051,
        "name": "IRS-P6 (RESOURCESAT-1)",
        "group": "resource",
        "lat": -17.61485809483744,
        "lon": 36.848064473400775,
        "alt_km": 822.5237137839267,
        "timestamp": "2025-12-20T03:42:47.048550+00:00",
        "meta_object_name": "IRS-P6 (RESOURCESAT-1)",
        "meta_object_id": "2003-046A",
        "meta_epoch": "2025-12-19T21:54:22.546944",
        "meta_mean_motion": 14.36077103,
        "meta_eccentricity": 0.0064611,
        "meta_inclination": 98.2172,
        "meta_ra_of_asc_node": 33.9877,
        "meta_arg_of_pericenter": 159.2123,
        "meta_mean_anomaly": 13.022,
        "meta_ephemeris_type": 0,
        "meta_classification_type": "U",
        "meta_norad_cat_id": 28051,
        "meta_element_set_no": 999,
        "meta_rev_at_epoch": 15479,
        "meta_bstar": 4.4775e-07,
        "meta_mean_motion_dot": -3.9e-07,
        "meta_mean_motion_ddot": 0,
        "tle_line1": "1 28051U 03046A   25353.91276096 -.00000039  00000+0  44775-6 0  9992",
        "tle_line2": "2 28051  98.2172  33.9877 0064611 159.2123  13.0220 14.36077103154791"
      },
      "geometry": {
        "type": "Point",
        "coordinates": [
          36.848064473400775,
          -17.61485809483744
        ]
      }
    },
    {
      "type": "Feature",
      "properties": {
        "norad_id": 28220,
        "name": "SHIYAN-1 (SY-1)",
        "group": "resource",
        "lat": 27.13051132764964,
        "lon": -119.79187064129594,
        "alt_km": 482.7425323039379,
        "timestamp": "2025-12-20T03:42:47.048561+00:00",
        "meta_object_name": "SHIYAN-1 (SY-1)",
        "meta_object_id": "2004-012A",
        "meta_epoch": "2025-12-19T03:28:38.259264",
        "meta_mean_motion": 15.28303655,
        "meta_eccentricity": 0.0005285,
        "meta_inclination": 97.8932,
        "meta_ra_of_asc_node": 55.062,
        "meta_arg_of_pericenter": 299.4151,
        "meta_mean_anomaly": 60.656,
        "meta_ephemeris_type": 0,
        "meta_classification_type": "U",
        "meta_norad_cat_id": 28220,
        "meta_element_set_no": 999,
        "meta_rev_at_epoch": 18354,
        "meta_bstar": 0.00036633035,
        "meta_mean_motion_dot": 0.00010025,
        "meta_mean_motion_ddot": 0,
        "tle_line1": "1 28220U 04012A   25353.14488726  .00010025  00000+0  36633-3 0  9990",
        "tle_line2": "2 28220  97.8932  55.0620 0005285 299.4151  60.6560 15.28303655183545"
      },
      "geometry": {
        "type": "Point",
        "coordinates": [
          -119.79187064129594,
          27.13051132764964
        ]
      }
    },
    {
      "type": "Feature",
      "properties": {
        "norad_id": 28376,
        "name": "AURA",
        "group": "resource",
        "lat": -12.495877248111581,
        "lon": 122.55764746445438,
        "alt_km": 694.700681090846,
        "timestamp": "2025-12-20T03:42:47.048572+00:00",
        "meta_object_name": "AURA",
        "meta_object_id": "2004-026A",
        "meta_epoch": "2025-12-19T20:15:35.513856",
        "meta_mean_motion": 14.60961765,
        "meta_eccentricity": 0.0001357,
        "meta_inclination": 98.3194,
        "meta_ra_of_asc_node": 304.104,
        "meta_arg_of_pericenter": 92.9045,
        "meta_mean_anomaly": 267.231,
        "meta_ephemeris_type": 0,
        "meta_classification_type": "U",
        "meta_norad_cat_id": 28376,
        "meta_element_set_no": 999,
        "meta_rev_at_epoch": 14002,
        "meta_bstar": 0.00015579,
        "meta_mean_motion_dot": 7.15e-06,
        "meta_mean_motion_ddot": 0,
        "tle_line1": "1 28376U 04026A   25353.84416104  .00000715  00000+0  15579-3 0  9996",
        "tle_line2": "2 28376  98.3194 304.1040 0001357  92.9045 267.2310 14.60961765140022"
      },
      "geometry": {
        "type": "Point",
        "coordinates": [
          122.55764746445438,
          -12.495877248111581
        ]
      }
    },
    {
      "type": "Feature",
      "properties": {
        "norad_id": 28649,
        "name": "IRS-P5 (CARTOSAT-1)",
        "group": "resource",
        "lat": 68.30674795613366,
        "lon": -140.2893786299941,
        "alt_km": 589.7030234000867,
        "timestamp": "2025-12-20T03:42:47.048583+00:00",
        "meta_object_name": "IRS-P5 (CARTOSAT-1)",
        "meta_object_id": "2005-017A",
        "meta_epoch": "2025-12-19T12:43:05.760192",
        "meta_mean_motion": 14.90426279,
        "meta_eccentricity": 8.32e-05,
        "meta_inclination": 97.5486,
        "meta_ra_of_asc_node": 19.6421,
        "meta_arg_of_pericenter": 50.2507,
        "meta_mean_anomaly": 309.8785,
        "meta_ephemeris_type": 0,
        "meta_classification_type": "U",
        "meta_norad_cat_id": 28649,
        "meta_element_set_no": 999,
        "meta_rev_at_epoch": 11705,
        "meta_bstar": 0.00011213,
        "meta_mean_motion_dot": 1.04e-05,
        "meta_mean_motion_ddot": 0,
        "tle_line1": "1 28649U 05017A   25353.52992778  .00001040  00000+0  11213-3 0  9994",
        "tle_line2": "2 28649  97.5486  19.6421 0000832  50.2507 309.8785 14.90426279117053"
      },
      "geometry": {
        "type": "Point",
        "coordinates": [
          -140.2893786299941,
          68.30674795613366
        ]
      }
    },
    {
      "type": "Feature",
      "properties": {
        "norad_id": 28893,
        "name": "SINAH 1",
        "group": "resource",
        "lat": 59.79880619926169,
        "lon": -42.81393013584991,
        "alt_km": 663.5805960543639,
        "timestamp": "2025-12-20T03:42:47.048594+00:00",
        "meta_object_name": "SINAH 1",
        "meta_object_id": "2005-043D",
        "meta_epoch": "2025-12-19T18:58:11.868096",
        "meta_mean_motion": 14.63969456,
        "meta_eccentricity": 0.0015618,
        "meta_inclination": 98.2608,
        "meta_ra_of_asc_node": 122.3666,
        "meta_arg_of_pericenter": 116.3353,
        "meta_mean_anomaly": 243.9455,
        "meta_ephemeris_type": 0,
        "meta_classification_type": "U",
        "meta_norad_cat_id": 28893,
        "meta_element_set_no": 999,
        "meta_rev_at_epoch": 7427,
        "meta_bstar": 6.6157e-05,
        "meta_mean_motion_dot": 2.98e-06,
        "meta_mean_motion_ddot": 0,
        "tle_line1": "1 28893U 05043D   25353.79041514  .00000298  00000+0  66157-4 0  9998",
        "tle_line2": "2 28893  98.2608 122.3666 0015618 116.3353 243.9455 14.63969456 74279"
      },
      "geometry": {
        "type": "Point",
        "coordinates": [
          -42.81393013584991,
          59.79880619926169
        ]
      }
    },
    {
      "type": "Feature",
      "properties": {
        "norad_id": 29079,
        "name": "EROS B",
        "group": "resource",
        "lat": 58.617366660537655,
        "lon": 98.88260456413525,
        "alt_km": 352.58854658848304,
        "timestamp": "2025-12-20T03:42:47.048618+00:00",
        "meta_object_name": "EROS B",
        "meta_object_id": "2006-014A",
        "meta_epoch": "2025-12-19T18:17:08.688768",
        "meta_mean_motion": 15.7042992,
        "meta_eccentricity": 0.0003493,
        "meta_inclination": 97.3469,
        "meta_ra_of_asc_node": 110.6817,
        "meta_arg_of_pericenter": 311.2616,
        "meta_mean_anomaly": 48.8346,
        "meta_ephemeris_type": 0,
        "meta_classification_type": "U",
        "meta_norad_cat_id": 29079,
        "meta_element_set_no": 999,
        "meta_rev_at_epoch": 9190,
        "meta_bstar": 0.001045,
        "meta_mean_motion_dot": 0.00129295,
        "meta_mean_motion_ddot": 0,
        "tle_line1": "1 29079U 06014A   25353.76190612  .00129295  00000+0  10450-2 0  9997",
        "tle_line2": "2 29079  97.3469 110.6817 0003493 311.2616  48.8346 15.70429920 91901"
      },
      "geometry": {
        "type": "Point",
        "coordinates": [
          98.88260456413525,
          58.617366660537655
        ]
      }
    },
    {
      "type": "Feature",
      "properties": {
        "norad_id": 29228,
        "name": "RESURS-DK 1",
        "group": "resource",
        "lat": -68.1932700689453,
        "lon": -31.319046966909657,
        "alt_km": 531.4452959604168,
        "timestamp": "2025-12-20T03:42:47.048631+00:00",
        "meta_object_name": "RESURS-DK 1",
        "meta_object_id": "2006-021A",
        "meta_epoch": "2025-12-19T17:02:08.742624",
        "meta_mean_motion": 15.12197286,
        "meta_eccentricity": 0.0006864,
        "meta_inclination": 69.9339,
        "meta_ra_of_asc_node": 83.8253,
        "meta_arg_of_pericenter": 253.3624,
        "meta_mean_anomaly": 106.6789,
        "meta_ephemeris_type": 0,
        "meta_classification_type": "U",
        "meta_norad_cat_id": 29228,
        "meta_element_set_no": 999,
        "meta_rev_at_epoch": 7543,
        "meta_bstar": 0.00011373,
        "meta_mean_motion_dot": 1.861e-05,
        "meta_mean_motion_ddot": 0,
        "tle_line1": "1 29228U 06021A   25353.70982341  .00001861  00000+0  11373-3 0  9997",
        "tle_line2": "2 29228  69.9339  83.8253 0006864 253.3624 106.6789 15.12197286 75430"
      },
      "geometry": {
        "type": "Point",
        "coordinates": [
          -31.319046966909657,
          -68.1932700689453
        ]
      }
    }
  ]
}